STARLINK-31063          
1 58547U 23192S   25316.20891155  .00000044  00000+0  13605-4 0  9990
2 58547  53.1613 238.0864 0001411  77.1078 283.0081 15.30194085108140
STARLINK-31016          
1 58548U 23192T   25316.22252573  .00001437  00000+0  60611-4 0  9994
2 58548  53.1606 248.1054 0001222  87.7489 272.3652 15.30207798108005
STARLINK-31053          
1 58549U 23192U   25316.20260588  .00000220  00000+0  19555-4 0  9998
2 58549  53.1620 248.7329 0001309 109.8925 250.2217 15.30203277107997
STARLINK-31056          
1 58550U 23192V   25316.09508522 -.00000444  00000+0 -28779-5 0  9999
2 58550  53.1598 248.7781 0001158  81.8988 278.2144 15.30187292107981
STARLINK-30999          
1 58551U 23192W   25316.05516367 -.00006017  00000+0 -19134-3 0  9997
2 58551  53.1601 239.1768 0001080  93.9050 266.2074 15.30176612108113
STARLINK-31046          
1 58552U 23192X   25316.20998161  .00000668  00000+0  34668-4 0  9995
2 58552  53.1616 248.7778 0001213  91.3524 268.7616 15.30204367107996
STARLINK-31044          
1 58589U 23200A   25316.05803399  .00000265  00000+0  34690-4 0  9994
2 58589  43.0031  89.0535 0001379 267.2461  92.8223 15.02538768105902
STARLINK-31062          
1 58590U 23200B   25315.74376754  .00000391  00000+0  43996-4 0  9990
2 58590  43.0034  92.7209 0001631 271.9336  88.1319 15.02534535105834
STARLINK-31096          
1 58592U 23200D   25316.10376452 -.00009787  00000+0 -70951-3 0  9998
2 58592  43.0037  90.2673 0001274 270.1047  89.9650 15.02585019105896
STARLINK-31094          
1 58593U 23200E   25315.44986281  .00000814  00000+0  75330-4 0  9999
2 58593  43.0036  93.1079 0001375 268.7896  91.2788 15.02537383105805
STARLINK-31075          
1 58594U 23200F   25316.10132045  .00000474  00000+0  50185-4 0  9998
2 58594  43.0056  89.3912 0001319 277.5127  82.5566 15.02541494105900
STARLINK-30857          
1 58595U 23200G   25316.10464643 -.00007039  00000+0 -50602-3 0  9990
2 58595  43.0038  89.4201 0001704 263.9925  96.0723 15.02572443105909
STARLINK-31059          
1 58596U 23200H   25316.27261925 -.00000632  00000+0 -13429-4 0  9996
2 58596  43.0042 315.2360 0001941 270.4235  89.6394 15.27600394107493
STARLINK-31087          
1 58597U 23200J   25316.09798846 -.00000167  00000+0  27108-5 0  9996
2 58597  43.0050  89.3707 0001407 273.4907  86.5775 15.02545080105796
STARLINK-31079          
1 58598U 23200K   25315.64104543  .00082056  00000+0  42760-2 0  9996
2 58598  42.9989  85.1850 0013588 310.7785  49.1882 15.14954400105912
STARLINK-31052          
1 58600U 23200M   25316.09133613  .00000081  00000+0  21034-4 0  9991
2 58600  43.0026  89.3196 0000954 260.0953  99.9781 15.02533814105905
