[{"OBJECT_NAME":"STARLINK-31063","OBJECT_ID":"2023-192S","EPOCH":"2025-11-12T05:00:49.957920","MEAN_MOTION":15.30194085,"ECCENTRICITY":0.00014114,"INCLINATION":53.1613,"RA_OF_ASC_NODE":238.0864,"ARG_OF_PERICENTER":77.1078,"MEAN_ANOMALY":283.0081,"EPHEMERIS_TYPE":0,"CLASSIFICATION_TYPE":"U","NORAD_CAT_ID":58547,"ELEMENT_SET_NO":999,"REV_AT_EPOCH":10814,"BSTAR":1.3605413e-5,"MEAN_MOTION_DOT":4.4e-7,"MEAN_MOTION_DDOT":0},{"OBJECT_NAME":"STARLINK-31016","OBJECT_ID":"2023-192T","EPOCH":"2025-11-12T05:20:26.223072","MEAN_MOTION":15.30207798,"ECCENTRICITY":0.00012227,"INCLINATION":53.1606,"RA_OF_ASC_NODE":248.1054,"ARG_OF_PERICENTER":87.7489,"MEAN_ANOMALY":272.3652,"EPHEMERIS_TYPE":0,"CLASSIFICATION_TYPE":"U","NORAD_CAT_ID":58548,"ELEMENT_SET_NO":999,"REV_AT_EPOCH":10800,"BSTAR":6.0610922e-5,"MEAN_MOTION_DOT":1.437e-5,"MEAN_MOTION_DDOT":0},{"OBJECT_NAME":"STARLINK-31053","OBJECT_ID":"2023-192U","EPOCH":"2025-11-12T04:51:45.148032","MEAN_MOTION":15.30203277,"ECCENTRICITY":0.00013098,"INCLINATION":53.162,"RA_OF_ASC_NODE":248.7329,"ARG_OF_PERICENTER":109.8925,"MEAN_ANOMALY":250.2217,"EPHEMERIS_TYPE":0,"CLASSIFICATION_TYPE":"U","NORAD_CAT_ID":58549,"ELEMENT_SET_NO":999,"REV_AT_EPOCH":10799,"BSTAR":1.9554976e-5,"MEAN_MOTION_DOT":2.2e-6,"MEAN_MOTION_DDOT":0},{"OBJECT_NAME":"STARLINK-31056","OBJECT_ID":"2023-192V","EPOCH":"2025-11-12T02:16:55.363008","MEAN_MOTION":15.30187292,"ECCENTRICITY":0.00011587,"INCLINATION":53.1598,"RA_OF_ASC_NODE":248.7781,"ARG_OF_PERICENTER":81.8988,"MEAN_ANOMALY":278.2144,"EPHEMERIS_TYPE":0,"CLASSIFICATION_TYPE":"U","NORAD_CAT_ID":58550,"ELEMENT_SET_NO":999,"REV_AT_EPOCH":10798,"BSTAR":-2.877929e-6,"MEAN_MOTION_DOT":-4.44e-6,"MEAN_MOTION_DDOT":0},{"OBJECT_NAME":"STARLINK-30999","OBJECT_ID":"2023-192W","EPOCH":"2025-11-12T01:19:26.141088","MEAN_MOTION":15.30176612,"ECCENTRICITY":0.00010807,"INCLINATION":53.1601,"RA_OF_ASC_NODE":239.1768,"ARG_OF_PERICENTER":93.905,"MEAN_ANOMALY":266.2074,"EPHEMERIS_TYPE":0,"CLASSIFICATION_TYPE":"U","NORAD_CAT_ID":58551,"ELEMENT_SET_NO":999,"REV_AT_EPOCH":10811,"BSTAR":-0.00019134018,"MEAN_MOTION_DOT":-6.017e-5,"MEAN_MOTION_DDOT":0},{"OBJECT_NAME":"STARLINK-31046","OBJECT_ID":"2023-192X","EPOCH":"2025-11-12T05:02:22.411104","MEAN_MOTION":15.30204367,"ECCENTRICITY":0.00012132,"INCLINATION":53.1616,"RA_OF_ASC_NODE":248.7778,"ARG_OF_PERICENTER":91.3524,"MEAN_ANOMALY":268.7616,"EPHEMERIS_TYPE":0,"CLASSIFICATION_TYPE":"U","NORAD_CAT_ID":58552,"ELEMENT_SET_NO":999,"REV_AT_EPOCH":10799,"BSTAR":3.4668495e-5,"MEAN_MOTION_DOT":6.68e-6,"MEAN_MOTION_DDOT":0},{"OBJECT_NAME":"STARLINK-31044","OBJECT_ID":"2023-200A","EPOCH":"2025-11-12T01:23:34.136736","MEAN_MOTION":15.02538768,"ECCENTRICITY":0.00013793,"INCLINATION":43.0031,"RA_OF_ASC_NODE":89.0535,"ARG_OF_PERICENTER":267.2461,"MEAN_ANOMALY":92.8223,"EPHEMERIS_TYPE":0,"CLASSIFICATION_TYPE":"U","NORAD_CAT_ID":58589,"ELEMENT_SET_NO":999,"REV_AT_EPOCH":10590,"BSTAR":3.4689616e-5,"MEAN_MOTION_DOT":2.65e-6,"MEAN_MOTION_DDOT":0},{"OBJECT_NAME":"STARLINK-31062","OBJECT_ID":"2023-200B","EPOCH":"2025-11-11T17:51:01.515456","MEAN_MOTION":15.02534535,"ECCENTRICITY":0.00016315,"INCLINATION":43.0034,"RA_OF_ASC_NODE":92.7209,"ARG_OF_PERICENTER":271.9336,"MEAN_ANOMALY":88.1319,"EPHEMERIS_TYPE":0,"CLASSIFICATION_TYPE":"U","NORAD_CAT_ID":58590,"ELEMENT_SET_NO":999,"REV_AT_EPOCH":10583,"BSTAR":4.3995979e-5,"MEAN_MOTION_DOT":3.91e-6,"MEAN_MOTION_DDOT":0},{"OBJECT_NAME":"STARLINK-31096","OBJECT_ID":"2023-200D","EPOCH":"2025-11-12T02:29:25.254528","MEAN_MOTION":15.02585019,"ECCENTRICITY":0.00012748,"INCLINATION":43.0037,"RA_OF_ASC_NODE":90.2673,"ARG_OF_PERICENTER":270.1047,"MEAN_ANOMALY":89.965,"EPHEMERIS_TYPE":0,"CLASSIFICATION_TYPE":"U","NORAD_CAT_ID":58592,"ELEMENT_SET_NO":999,"REV_AT_EPOCH":10589,"BSTAR":-0.00070951033,"MEAN_MOTION_DOT":-9.787e-5,"MEAN_MOTION_DDOT":0},{"OBJECT_NAME":"STARLINK-31094","OBJECT_ID":"2023-200E","EPOCH":"2025-11-11T10:47:48.146784","MEAN_MOTION":15.02537383,"ECCENTRICITY":0.00013758,"INCLINATION":43.0036,"RA_OF_ASC_NODE":93.1079,"ARG_OF_PERICENTER":268.7896,"MEAN_ANOMALY":91.2788,"EPHEMERIS_TYPE":0,"CLASSIFICATION_TYPE":"U","NORAD_CAT_ID":58593,"ELEMENT_SET_NO":999,"REV_AT_EPOCH":10580,"BSTAR":7.5329658e-5,"MEAN_MOTION_DOT":8.14e-6,"MEAN_MOTION_DDOT":0},{"OBJECT_NAME":"STARLINK-31075","OBJECT_ID":"2023-200F","EPOCH":"2025-11-12T02:25:54.086880","MEAN_MOTION":15.02541494,"ECCENTRICITY":0.00013195,"INCLINATION":43.0056,"RA_OF_ASC_NODE":89.3912,"ARG_OF_PERICENTER":277.5127,"MEAN_ANOMALY":82.5566,"EPHEMERIS_TYPE":0,"CLASSIFICATION_TYPE":"U","NORAD_CAT_ID":58594,"ELEMENT_SET_NO":999,"REV_AT_EPOCH":10590,"BSTAR":5.0184601e-5,"MEAN_MOTION_DOT":4.74e-6,"MEAN_MOTION_DDOT":0},{"OBJECT_NAME":"STARLINK-30857","OBJECT_ID":"2023-200G","EPOCH":"2025-11-12T02:30:41.451552","MEAN_MOTION":15.02572443,"ECCENTRICITY":0.00017043,"INCLINATION":43.0038,"RA_OF_ASC_NODE":89.4201,"ARG_OF_PERICENTER":263.9925,"MEAN_ANOMALY":96.0723,"EPHEMERIS_TYPE":0,"CLASSIFICATION_TYPE":"U","NORAD_CAT_ID":58595,"ELEMENT_SET_NO":999,"REV_AT_EPOCH":10590,"BSTAR":-0.00050602434,"MEAN_MOTION_DOT":-7.039e-5,"MEAN_MOTION_DDOT":0},{"OBJECT_NAME":"STARLINK-31059","OBJECT_ID":"2023-200H","EPOCH":"2025-11-12T06:32:34.303200","MEAN_MOTION":15.27600394,"ECCENTRICITY":0.00019417,"INCLINATION":43.0042,"RA_OF_ASC_NODE":315.236,"ARG_OF_PERICENTER":270.4235,"MEAN_ANOMALY":89.6394,"EPHEMERIS_TYPE":0,"CLASSIFICATION_TYPE":"U","NORAD_CAT_ID":58596,"ELEMENT_SET_NO":999,"REV_AT_EPOCH":10749,"BSTAR":-1.3428876e-5,"MEAN_MOTION_DOT":-6.32e-6,"MEAN_MOTION_DDOT":0},{"OBJECT_NAME":"STARLINK-31087","OBJECT_ID":"2023-200J","EPOCH":"2025-11-12T02:21:06.202944","MEAN_MOTION":15.0254508,"ECCENTRICITY":0.0001407,"INCLINATION":43.005,"RA_OF_ASC_NODE":89.3707,"ARG_OF_PERICENTER":273.4907,"MEAN_ANOMALY":86.5775,"EPHEMERIS_TYPE":0,"CLASSIFICATION_TYPE":"U","NORAD_CAT_ID":58597,"ELEMENT_SET_NO":999,"REV_AT_EPOCH":10579,"BSTAR":2.710782e-6,"MEAN_MOTION_DOT":-1.67e-6,"MEAN_MOTION_DDOT":0},{"OBJECT_NAME":"STARLINK-31079","OBJECT_ID":"2023-200K","EPOCH":"2025-11-11T15:23:06.325152","MEAN_MOTION":15.149544,"ECCENTRICITY":0.00135889,"INCLINATION":42.9989,"RA_OF_ASC_NODE":85.185,"ARG_OF_PERICENTER":310.7785,"MEAN_ANOMALY":49.1882,"EPHEMERIS_TYPE":0,"CLASSIFICATION_TYPE":"U","NORAD_CAT_ID":58598,"ELEMENT_SET_NO":999,"REV_AT_EPOCH":10591,"BSTAR":0.0042759751,"MEAN_MOTION_DOT":0.00082056,"MEAN_MOTION_DDOT":0},{"OBJECT_NAME":"STARLINK-31052","OBJECT_ID":"2023-200M","EPOCH":"2025-11-12T02:11:31.441632","MEAN_MOTION":15.02533814,"ECCENTRICITY":9.542e-5,"INCLINATION":43.0026,"RA_OF_ASC_NODE":89.3196,"ARG_OF_PERICENTER":260.0953,"MEAN_ANOMALY":99.9781,"EPHEMERIS_TYPE":0,"CLASSIFICATION_TYPE":"U","NORAD_CAT_ID":58600,"ELEMENT_SET_NO":999,"REV_AT_EPOCH":10590,"BSTAR":2.1033598e-5,"MEAN_MOTION_DOT":8.1e-7,"MEAN_MOTION_DDOT":0}]
